0 COSMOS 44
1 00876U 64053A   13281.43955301  .00000165  00000-0  50142-4 0  7608
2 00876 065.0608 302.4955 0157832 277.6279 080.6921 14.62943988610728
0 COSMOS 44
1 00876U 64053A   13282.46495891  .00000212  00000-0  57836-4 0  7616
2 00876 065.0608 299.4785 0157839 277.2675 081.0508 14.62946110610879
0 COSMOS 44
1 00876U 64053A   13283.49036367  .00000205  00000-0  56687-4 0  7625
2 00876 065.0607 296.4614 0157855 276.9157 081.4009 14.62946786611022
0 COSMOS 44
1 00876U 64053A   13286.08805371  .00000179  00000-0  52467-4 0  7646
2 00876 065.0607 288.8182 0157877 276.0332 082.2797 14.62948804611405
0 COSMOS 44
1 00876U 64053A   13287.11345650  .00000220  00000-0  59140-4 0  7653
2 00876 065.0607 285.8011 0157878 275.6782 082.6335 14.62949537611550
0 COSMOS 44
1 00876U 64053A   13288.13885871  .00000380  00000-0  85165-4 0  7664
2 00876 065.0609 282.7839 0157885 275.2975 083.0129 14.62951155611706
0 COSMOS 44
1 00876U 64053A   13289.43770016  .00000242  00000-0  62636-4 0  7678
2 00876 065.0610 278.9622 0157882 274.8483 083.4607 14.62952694611895
0 COSMOS 44
1 00876U 64053A   13290.46310034  .00000295  00000-0  71338-4 0  7681
2 00876 065.0612 275.9451 0157875 274.4931 083.8149 14.62953442612045
0 COSMOS 44
1 00876U 64053A   13291.48849976  .00000317  00000-0  74936-4 0  7699
2 00876 065.0613 272.9281 0157868 274.1377 084.1694 14.62954002612195
0 COSMOS 44
1 00876U 64053A   13293.12913788  .00000340  00000-0  78608-4 0  7703
2 00876 065.0614 268.1010 0157826 273.5751 084.7311 14.62955637612430
0 COSMOS 44
1 00876U 64053A   13294.15453589  .00000327  00000-0  76427-4 0  7718
2 00876 065.0614 265.0841 0157828 273.2173 085.0882 14.62957051612580
0 COSMOS 44
1 00876U 64053A   13295.17993301  .00000342  00000-0  78929-4 0  7729
2 00876 065.0615 262.0672 0157855 272.8499 085.4545 14.62957966612738
